SL-14 R/B               
1 21423U 91042B   26015.14138440  .00000268  00000+0  30874-4 0  9998
2 21423  82.4929 270.4055 0018413  59.6017 300.7014 14.81774003845148
ERS-1                   
1 21574U 91050A   26015.03412435  .00000213  00000+0  82816-4 0  9994
2 21574  98.7898  31.9211 0032009   3.4369 356.7031 14.39395721808012
ARIANE 40 R/B           
1 21610U 91050F   26015.14323824  .00000190  00000+0  69611-4 0  9992
2 21610  98.2117  69.3608 0002335 218.2986 141.8039 14.42844107811271
INTERCOSMOS 25          
1 21819U 91086A   26014.41257844  .00000983  00000+0  19471-3 0  9997
2 21819  82.6086 342.8120 1485988 233.9200 111.5174 12.11853461490112
SL-8 R/B                
1 21876U 92008B   26014.83698694  .00000057  00000+0  43826-4 0  9997
2 21876  82.9289 307.8318 0033411 286.0780 127.7190 13.75966192702013
SL-8 R/B                
1 21938U 92020B   26014.94744675  .00000152  00000+0  14096-3 0  9995
2 21938  82.9295 193.6568 0030260  88.0833  21.0160 13.75537717693744
USA 81                  
1 21949U 92023A   26014.93779248  .00000146  00000+0  46639-4 0  9995
2 21949  85.0102 162.4311 0001694 117.7005 242.4360 14.32342120 87099
COSMOS 2219             
1 22219U 92076A   26014.75970707 -.00000053  00000+0 -32773-5 0  9991
2 22219  71.0619 130.8093 0020674 281.5903  78.2899 14.14081333710754
SL-16 R/B               
1 22220U 92076B   26015.19930844  .00000135  00000+0  90949-4 0  9997
2 22220  71.0015 301.0505 0012940 187.2139 323.2152 14.16849632714256
COSMOS 2221             
1 22236U 92080A   26014.93026311  .00001510  00000+0  13238-3 0  9998
2 22236  82.5057 330.5538 0015211  20.0303 340.1513 14.95925994772751
SL-16 R/B               
1 22285U 92093B   26014.60603140  .00000271  00000+0  16307-3 0  9994
2 22285  71.0221 117.8047 0003675 358.5682   1.5429 14.15436611705500
COSMOS 2228             
1 22286U 92094A   26015.18225843  .00001370  00000+0  11667-3 0  9995
2 22286  82.5189 288.5365 0019356 118.8071 241.5098 14.96909333768054
